1 30833U 99025AVT 18204.25158786 +.00000207 +00000-0 +11809-3 0  9990
2 30833 099.8581 357.8426 0035794 158.8416 201.4247 14.21595310591663
1 30835U 99025AVV 18204.38769508 +.00001332 +00000-0 +80248-4 0  9990
2 30835 098.7490 261.3492 0131734 311.0081 047.9810 15.06185482615762
1 30836U 99025AVW 18204.52956101 +.00000028 +00000-0 +42426-4 0  9991
2 30836 099.0485 229.8289 0026063 290.3554 069.4816 14.08991579239698
1 30837U 99025AVX 18204.57961376 +.00000110 +00000-0 +83908-4 0  9999
2 30837 098.7619 241.8738 0032845 262.9342 250.1545 14.11527720587176
1 30838U 99025AVY 18204.56874287 +.00000386 +00000-0 +19059-3 0  9993
2 30838 099.0516 331.0833 0057015 048.3534 312.2505 14.22555070589225
1 30840U 99025AWA 18204.63263478 +.00000128 +00000-0 +34196-4 0  9992
2 30840 098.3277 264.6920 0266076 025.5450 335.8617 14.45448377340355
1 30841U 99025AWB 18204.19649440 +.00000269 +00000-0 +38082-3 0  9994
2 30841 098.7341 029.2283 0360204 053.2030 310.1589 13.39935147555944
1 30843U 99025AWD 18204.92788315 +.00000002 +00000-0 +14123-4 0  9998
2 30843 098.8371 098.0547 0156932 319.8197 039.1476 14.48269884602308
1 30844U 99025AWE 18204.88371817 +.00002201 +00000-0 +47251-3 0  9999
2 30844 098.7726 353.0576 0045863 127.1349 025.4969 14.59071150597944
1 30845U 99025AWF 18204.57722316 +.00000029 +00000-0 +60737-4 0  9991
2 30845 098.4601 119.4392 0196446 357.0780 122.9891 13.75092914571836
1 30846U 99025AWG 18204.78064765 +.00000231 +00000-0 +10755-3 0  9991
2 30846 099.2702 145.5734 0063078 211.5187 178.5801 14.29496519593085
1 30847U 99025AWH 18204.11074265 +.00000315 +00000-0 +22504-3 0  9993
2 30847 098.7432 071.5993 0080593 021.1101 132.4743 14.02626869581037
1 30848U 99025AWJ 18204.73153958 +.00000462 +00000-0 +23359-3 0  9991
2 30848 098.9009 304.1935 0053683 182.5646 177.5263 14.20322245588919
1 30849U 99025AWK 18203.94004469 +.00000398 +00000-0 +25922-3 0  9992
2 30849 099.1102 186.0103 0057325 013.4046 042.0141 14.07478599583188
1 30850U 99025AWL 18204.55754900 +.00000532 +00000-0 +36159-3 0  9998
2 30850 098.3880 231.0624 0140775 280.0964 233.4862 13.99287078579187
1 30851U 99025AWM 18203.20233300 +.00001120 +00000-0 +38768-3 0  9998
2 30851 098.5235 118.8424 0065229 209.1353 150.6187 14.36439801591749
1 30852U 99025AWN 18204.51514588 +.00000273 +00000-0 +18908-3 0  9996
2 30852 099.0105 235.2957 0057872 258.3282 101.1388 14.06525979584092
1 30856U 99025AWS 18204.48070326 +.00001473 +00000-0 +81844-3 0  9995
2 30856 098.2418 188.5402 0144262 152.5612 334.2938 14.07281914583123
1 30857U 99025AWT 18204.46848784 +.00001001 +00000-0 +60042-3 0  9999
2 30857 098.9236 139.3906 0083288 050.5927 310.2578 14.07533562584931
1 30858U 99025AWU 18204.97395958 +.00000141 +00000-0 +97863-4 0  9992
2 30858 099.0758 215.1345 0030602 205.0652 184.9807 14.14192943588079
1 30859U 99025AWV 18203.83985200 +.00000853 +00000-0 +44426-3 0  9998
2 30859 098.8975 170.1620 0052204 261.0260 098.5003 14.16644086585902
1 30860U 99025AWW 18204.50203482 +.00000546 +00000-0 +31738-3 0  9991
2 30860 099.0822 213.3600 0045282 289.8148 069.8145 14.12495741583541
1 30862U 99025AWY 18203.94882772 +.00000801 +00000-0 +43088-3 0  9990
2 30862 099.0410 205.1119 0077031 332.5971 057.3215 14.14353761583870
1 30863U 99025AWZ 18204.73102824 +.00000042 +00000-0 +13955-3 0  9999
2 30863 099.1875 288.3415 0886402 115.3225 031.4475 12.32744276264216
1 30867U 99025AXD 18204.07200649 +.00000825 +00000-0 +49560-3 0  9994
2 30867 097.8495 038.2409 0060546 313.9042 170.7720 14.08232420584464
1 30868U 99025AXE 18204.67249950 -.00000084 +00000-0 -23961-4 0  9996
2 30868 098.2707 266.1929 0139343 045.1306 107.6851 14.09643905586735
1 30870U 99025AXG 18204.53753453 +.00008065 +00000-0 +47043-3 0  9993
2 30870 098.9611 233.7698 0025811 122.7339 237.6380 15.12027529608542
1 30871U 99025AXH 18204.60682773 +.00006233 +00000-0 +62289-3 0  9992
2 30871 099.1776 255.6678 0064438 145.8041 214.7349 14.90377934602316
1 30872U 99025AXJ 18204.10675473 +.00000325 +00000-0 +15305-3 0  9990
2 30872 099.1992 071.5069 0048391 260.6152 253.4344 14.26674697591840
1 30873U 99025AXK 18204.88031828 +.00000031 +00000-0 +34702-4 0  9993
2 30873 098.7760 234.0476 0112432 125.6748 235.4955 14.17067774590025
1 30874U 99025AXL 18204.42327725 +.00000156 +00000-0 +10178-3 0  9996
2 30874 098.7864 275.5438 0043614 226.6094 192.4991 14.15379943588470
1 30875U 99025AXM 18203.95890031 +.00005369 +00000-0 +10946-2 0  9992
2 30875 099.0767 034.0669 0045701 037.9920 322.4486 14.60792768591237
1 30876U 99025AXN 18204.95723559 +.00000336 +00000-0 +26498-3 0  9993
2 30876 098.9635 255.5168 0069423 183.6853 300.0213 13.97232000580072
1 30877U 99025AXP 18204.34572309 +.00002109 +00000-0 +91799-3 0  9998
2 30877 098.7705 138.5976 0064121 252.1948 233.7344 14.24019183586173
1 30878U 99025AXQ 18203.57417338 +.00000105 +00000-0 +88136-4 0  9999
2 30878 098.9009 238.2412 0042548 352.9535 160.8072 14.07268601583533
1 30879U 99025AXR 18204.32399299 +.00000891 +00000-0 +30296-3 0  9994
2 30879 099.3866 242.8197 0414256 311.5123 045.1175 14.00519996577849
1 30880U 99025AXS 18204.81501462 +.00000470 +00000-0 +27363-3 0  9991
2 30880 099.0126 238.0915 0025070 232.7033 183.2994 14.13403292585384
1 30882U 99025AXU 18204.35594131 +.00000568 +00000-0 +99204-4 0  9999
2 30882 098.2899 266.5782 0242387 233.2358 124.6370 14.54832993602106
1 30883U 99025AXV 18204.21803333 +.00000049 +00000-0 +44677-4 0  9990
2 30883 098.3849 352.4217 0115429 044.4794 076.8022 14.12709259587873
1 30884U 99025AXW 18204.92954945 +.00000396 +00000-0 +12687-3 0  9995
2 30884 098.9423 022.0857 0111164 164.0788 196.3940 14.42015862595826
1 30885U 99025AXX 18204.21818644 +.00000563 +00000-0 +27927-3 0  9992
2 30885 098.9615 294.2664 0084131 094.5232 287.2765 14.19336126586483
1 30886U 99025AXY 18204.78172243 +.00000455 +00000-0 +28228-3 0  9998
2 30886 099.2030 329.1783 0039417 048.1289 312.3233 14.10004180583506
1 30887U 99025AXZ 18204.55226118 +.00000156 +00000-0 +47778-4 0  9995
2 30887 098.7360 244.6150 0308447 027.0489 334.6397 14.31492734594189
1 30888U 99025AYA 18204.88414340 +.00000360 +00000-0 +76766-4 0  9994
2 30888 099.4842 083.8748 0146587 071.9997 289.7112 14.60170805603456
1 30891U 99025AYD 18204.43515257 +.00000020 +00000-0 +42244-4 0  9995
2 30891 099.0379 272.1212 0054890 141.3075 283.9508 14.00970949581455
1 30892U 99025AYE 18204.32012690 +.00000078 +00000-0 +65922-4 0  9998
2 30892 099.7056 238.5192 0041526 127.3169 233.1797 14.15214915589846
1 30893U 99025AYF 18202.01177262  .00000195  00000-0  12937-3 0  9997
2 30893  98.3247 123.9543 0332550  26.2807  31.1231 13.86610514576293
1 30895U 99025AYH 18204.93090227 +.00000087 +00000-0 +43453-4 0  9995
2 30895 098.9288 192.2285 0233054 047.9440 345.3709 14.26309873592847
1 30898U 99025AYL 18204.07060240 +.00000508 +00000-0 +12006-3 0  9992
2 30898 099.0512 160.7729 0134990 134.3192 226.9164 14.53709866268125
1 30899U 99025AYM 18204.10932035 +.00000554 +00000-0 +31765-3 0  9991
2 30899 099.1378 322.1064 0038405 013.5342 109.2429 14.13321387586069
1 30900U 99025AYN 18204.70140993 +.00000710 +00000-0 +40887-3 0  9993
2 30900 099.3492 007.6905 0078695 132.9752 227.8051 14.11088343258813
1 30901U 99025AYP 10123.43623962 +.00007370 +00000-0 +16860-2 0  9990
2 30901 099.0118 195.1604 0144348 002.0732 035.3151 14.49736275168187
1 30902U 99025AYQ 18204.45767627 +.00000323 +00000-0 +19050-3 0  9994
2 30902 100.2345 093.2400 0118441 080.1726 281.2790 14.12759184332708
1 30903U 99025AYR 18204.55964831 -.00000004 +00000-0 +29521-4 0  9994
2 30903 099.3860 335.2676 0096934 204.7327 154.9170 13.96531025581837
1 30904U 99025AYS 10088.74591437 +.00000216 +00000-0 +16776-3 0  9997
2 30904 099.0437 078.4462 0093349 081.8083 282.9943 14.00675834157566
1 30905U 99025AYT 18204.34395127 +.00000466 +00000-0 +30869-3 0  9996
2 30905 099.0719 254.8126 0069866 096.8856 264.0266 14.05306660582685
1 30906U 99025AYU 18204.01604817 +.00000247 +00000-0 +16344-3 0  9999
2 30906 098.9313 134.5251 0084900 285.8500 073.3323 14.08965332259944
1 30907U 99025AYV 18201.40634163  .00000467  00000-0  30926-3 0  9993
2 30907  99.9213 271.4311 0060736 288.2493  71.2069 14.06510769583203
1 30912U 99025AZA 18204.77628913 +.00000524 +00000-0 +13064-3 0  9996
2 30912 098.9655 140.0815 0113687 048.6849 312.4062 14.52544584600504
1 30913U 99025AZB 18204.02851012 -.00000011 +00000-0 +21641-4 0  9996
2 30913 098.9952 264.8023 0049813 136.0118 342.1723 14.00436235581172
1 30914U 99025AZC 18202.37064776 -.00000361  00000-0 -52903-3 0  9999
2 30914  99.9353 249.3075 0544906  26.3415 336.4340 13.00518572538760
1 30915U 99025AZD 18203.45024332 +.00000506 +00000-0 +30272-3 0  9998
2 30915 099.1036 213.2288 0060357 247.9800 111.4951 14.10892996583305
1 30916U 99025AZE 18204.50572494 +.00000222 +00000-0 +17415-3 0  9992
2 30916 099.2525 213.1007 0078645 161.1032 352.0508 14.00876586580158
1 30918U 99025AZG 18204.86685427 +.00000258 +00000-0 +21566-3 0  9995
2 30918 098.3767 177.2555 0173280 049.0741 341.6225 13.88992174575272
1 30919U 99025AZH 18204.16925736 +.00000796 +00000-0 +32747-3 0  9999
2 30919 098.8126 274.5845 0055926 075.1291 338.3176 14.28938169589043
1 30920U 99025AZJ 18204.73472198 +.00000799 +00000-0 +61442-3 0  9990
2 30920 098.8624 030.8493 0153602 343.3845 016.2313 13.90565969574002
1 30921U 99025AZK 18204.08427647 +.00000547 +00000-0 +29999-3 0  9990
2 30921 099.0109 231.9551 0022393 206.6366 213.8589 14.16000702585004
1 30922U 99025AZL 18204.58460500 +.00000148 +00000-0 +10507-3 0  9993
2 30922 098.9072 238.1243 0015411 167.5341 343.5700 14.11876391584331
1 30923U 99025AZM 18199.48452047 +.00001105 +00000-0 +50192-3 0  9991
2 30923 098.9368 203.5575 0035703 095.9136 264.6113 14.23574887584740
1 30924U 99025AZN 18204.09838279 +.00001194 +00000-0 +54295-3 0  9997
2 30924 098.9934 247.8062 0054041 221.1675 192.4998 14.22988193585185
1 30925U 99025AZP 18204.65304817 +.00000528 +00000-0 +27705-3 0  9992
2 30925 098.9153 273.2256 0043248 108.7453 045.4138 14.17976991586583
